{"type": "FeatureCollection", "features": [ {"type": "Feature", "properties": {"norad_id": 29750, "name": "FENGYUN 1C DEB", "group": "fengyun-1c-debris", "lat": -25.104841267090364, "lon": -169.0532089305505, "alt_km": 869.7700767938495, "timestamp": "2025-12-11T22:43:47.539775+00:00", "meta": {"OBJECT_NAME": "FENGYUN 1C DEB", "OBJECT_ID": "1999-025AQ", "EPOCH": "2025-12-11T13:57:26.853120", "MEAN_MOTION": 14.09642083, "ECCENTRICITY": 0.00351444, "INCLINATION": 98.7549, "RA_OF_ASC_NODE": 14.7318, "ARG_OF_PERICENTER": 304.7864, "MEAN_ANOMALY": 207.063, "EPHEMERIS_TYPE": 0, "CLASSIFICATION_TYPE": "U", "NORAD_CAT_ID": 29750, "ELEMENT_SET_NO": 999, "REV_AT_EPOCH": 97057, "BSTAR": 0.00030160876, "MEAN_MOTION_DOT": 4.88e-06, "MEAN_MOTION_DDOT": 0}, "tle": {"line1": "1 29750U 99025AQ  25345.58156080  .00000488  00000+0  30161-3 0  9993", "line2": "2 29750  98.7549  14.7318 0035144 304.7864 207.0630 14.09642083970573"}}, "geometry": {"type": "Point", "coordinates": [-169.0532089305505, -25.104841267090364]}}, {"type": "Feature", "properties": {"norad_id": 29751, "name": "FENGYUN 1C DEB", "group": "fengyun-1c-debris", "lat": -56.24523121067929, "lon": 26.83853354130236, "alt_km": 881.3132493908606, "timestamp": "2025-12-11T22:43:47.539787+00:00", "meta": {"OBJECT_NAME": "FENGYUN 1C DEB", "OBJECT_ID": "1999-025AR", "EPOCH": "2025-12-11T01:12:53.662176", "MEAN_MOTION": 14.23627063, "ECCENTRICITY": 0.00898438, "INCLINATION": 98.5417, "RA_OF_ASC_NODE": 12.9718, "ARG_OF_PERICENTER": 144.1023, "MEAN_ANOMALY": 246.6309, "EPHEMERIS_TYPE": 0, "CLASSIFICATION_TYPE": "U", "NORAD_CAT_ID": 29751, "ELEMENT_SET_NO": 999, "REV_AT_EPOCH": 98049, "BSTAR": 0.0002259373, "MEAN_MOTION_DOT": 4.95e-06, "MEAN_MOTION_DDOT": 0}, "tle": {"line1": "1 29751U 99025AR  25345.05062109  .00000495  00000+0  22594-3 0  9993", "line2": "2 29751  98.5417  12.9718 0089843 144.1023 246.6309 14.23627063980499"}}, "geometry": {"type": "Point", "coordinates": [26.83853354130236, -56.24523121067929]}}, {"type": "Feature", "properties": {"norad_id": 29754, "name": "FENGYUN 1C DEB", "group": "fengyun-1c-debris", "lat": 81.06095798482333, "lon": 4.7768460786525395, "alt_km": 843.692002554907, "timestamp": "2025-12-11T22:43:47.539797+00:00", "meta": {"OBJECT_NAME": "FENGYUN 1C DEB", "OBJECT_ID": "1999-025AU", "EPOCH": "2025-12-11T13:55:31.122048", "MEAN_MOTION": 14.19143312, "ECCENTRICITY": 0.00358505, "INCLINATION": 98.8838, "RA_OF_ASC_NODE": 88.3169, "ARG_OF_PERICENTER": 242.6474, "MEAN_ANOMALY": 133.4075, "EPHEMERIS_TYPE": 0, "CLASSIFICATION_TYPE": "U", "NORAD_CAT_ID": 29754, "ELEMENT_SET_NO": 999, "REV_AT_EPOCH": 97338, "BSTAR": 0.0015903075, "MEAN_MOTION_DOT": 3.305e-05, "MEAN_MOTION_DDOT": 0}, "tle": {"line1": "1 29754U 99025AU  25345.58022132  .00003305  00000+0  15903-2 0  9994", "line2": "2 29754  98.8838  88.3169 0035850 242.6474 133.4075 14.19143312973380"}}, "geometry": {"type": "Point", "coordinates": [4.7768460786525395, 81.06095798482333]}}, {"type": "Feature", "properties": {"norad_id": 29758, "name": "FENGYUN 1C DEB", "group": "fengyun-1c-debris", "lat": -12.701007762586583, "lon": 103.64507318612837, "alt_km": 747.8517683184373, "timestamp": "2025-12-11T22:43:47.539808+00:00", "meta": {"OBJECT_NAME": "FENGYUN 1C DEB", "OBJECT_ID": "1999-025AY", "EPOCH": "2025-12-11T06:23:47.256288", "MEAN_MOTION": 14.4095356, "ECCENTRICITY": 0.00208258, "INCLINATION": 98.8548, "RA_OF_ASC_NODE": 100.9272, "ARG_OF_PERICENTER": 312.1546, "MEAN_ANOMALY": 106.6017, "EPHEMERIS_TYPE": 0, "CLASSIFICATION_TYPE": "U", "NORAD_CAT_ID": 29758, "ELEMENT_SET_NO": 999, "REV_AT_EPOCH": 97650, "BSTAR": 0.0051971038, "MEAN_MOTION_DOT": 0.00016725, "MEAN_MOTION_DDOT": 0}, "tle": {"line1": "1 29758U 99025AY  25345.26651917  .00016725  00000+0  51971-2 0  9997", "line2": "2 29758  98.8548 100.9272 0020825 312.1546 106.6017 14.40953560976500"}}, "geometry": {"type": "Point", "coordinates": [103.64507318612837, -12.701007762586583]}}, {"type": "Feature", "properties": {"norad_id": 29760, "name": "FENGYUN 1C DEB", "group": "fengyun-1c-debris", "lat": 16.773555903264132, "lon": 170.80135350479503, "alt_km": 773.3006332981186, "timestamp": "2025-12-11T22:43:47.539818+00:00", "meta": {"OBJECT_NAME": "FENGYUN 1C DEB", "OBJECT_ID": "1999-025BA", "EPOCH": "2025-12-11T11:43:36.187392", "MEAN_MOTION": 14.08288005, "ECCENTRICITY": 0.01307781, "INCLINATION": 98.7621, "RA_OF_ASC_NODE": 347.6916, "ARG_OF_PERICENTER": 177.0939, "MEAN_ANOMALY": 183.102, "EPHEMERIS_TYPE": 0, "CLASSIFICATION_TYPE": "U", "NORAD_CAT_ID": 29760, "ELEMENT_SET_NO": 999, "REV_AT_EPOCH": 97075, "BSTAR": 0.00020928175, "MEAN_MOTION_DOT": 3.45e-06, "MEAN_MOTION_DDOT": 0}, "tle": {"line1": "1 29760U 99025BA  25345.48861328  .00000345  00000+0  20928-3 0  9993", "line2": "2 29760  98.7621 347.6916 0130778 177.0939 183.1020 14.08288005970756"}}, "geometry": {"type": "Point", "coordinates": [170.80135350479503, 16.773555903264132]}}, {"type": "Feature", "properties": {"norad_id": 29762, "name": "FENGYUN 1C DEB", "group": "fengyun-1c-debris", "lat": 81.38636845365978, "lon": -125.9492101280083, "alt_km": 863.3531142898719, "timestamp": "2025-12-11T22:43:47.539828+00:00", "meta": {"OBJECT_NAME": "FENGYUN 1C DEB", "OBJECT_ID": "1999-025BC", "EPOCH": "2025-12-11T11:06:28.156032", "MEAN_MOTION": 14.22578851, "ECCENTRICITY": 0.02040574, "INCLINATION": 98.5796, "RA_OF_ASC_NODE": 328.287, "ARG_OF_PERICENTER": 339.3757, "MEAN_ANOMALY": 150.5712, "EPHEMERIS_TYPE": 0, "CLASSIFICATION_TYPE": "U", "NORAD_CAT_ID": 29762, "ELEMENT_SET_NO": 999, "REV_AT_EPOCH": 97930, "BSTAR": 0.00073697592, "MEAN_MOTION_DOT": 1.991e-05, "MEAN_MOTION_DDOT": 0}, "tle": {"line1": "1 29762U 99025BC  25345.46282588  .00001991  00000+0  73698-3 0  9998", "line2": "2 29762  98.5796 328.2870 0204057 339.3757 150.5712 14.22578851979309"}}, "geometry": {"type": "Point", "coordinates": [-125.9492101280083, 81.38636845365978]}}, {"type": "Feature", "properties": {"norad_id": 29763, "name": "FENGYUN 1C DEB", "group": "fengyun-1c-debris", "lat": -4.390827341535102, "lon": -33.94411868476365, "alt_km": 961.6266230802657, "timestamp": "2025-12-11T22:43:47.539839+00:00", "meta": {"OBJECT_NAME": "FENGYUN 1C DEB", "OBJECT_ID": "1999-025BD", "EPOCH": "2025-12-11T09:50:32.055072", "MEAN_MOTION": 14.07875446, "ECCENTRICITY": 0.01273025, "INCLINATION": 98.7609, "RA_OF_ASC_NODE": 324.8563, "ARG_OF_PERICENTER": 184.2544, "MEAN_ANOMALY": 331.1242, "EPHEMERIS_TYPE": 0, "CLASSIFICATION_TYPE": "U", "NORAD_CAT_ID": 29763, "ELEMENT_SET_NO": 999, "REV_AT_EPOCH": 97031, "BSTAR": 0.00037479253, "MEAN_MOTION_DOT": 6.42e-06, "MEAN_MOTION_DDOT": 0}, "tle": {"line1": "1 29763U 99025BD  25345.41009323  .00000642  00000+0  37479-3 0  9997", "line2": "2 29763  98.7609 324.8563 0127302 184.2544 331.1242 14.07875446970314"}}, "geometry": {"type": "Point", "coordinates": [-33.94411868476365, -4.390827341535102]}}, {"type": "Feature", "properties": {"norad_id": 29765, "name": "FENGYUN 1C DEB", "group": "fengyun-1c-debris", "lat": -72.6576361880961, "lon": 154.30195764230768, "alt_km": 934.518841491471, "timestamp": "2025-12-11T22:43:47.539849+00:00", "meta": {"OBJECT_NAME": "FENGYUN 1C DEB", "OBJECT_ID": "1999-025BF", "EPOCH": "2025-12-11T07:53:47.532768", "MEAN_MOTION": 14.02152869, "ECCENTRICITY": 0.00598615, "INCLINATION": 98.8308, "RA_OF_ASC_NODE": 3.5588, "ARG_OF_PERICENTER": 96.4922, "MEAN_ANOMALY": 280.191, "EPHEMERIS_TYPE": 0, "CLASSIFICATION_TYPE": "U", "NORAD_CAT_ID": 29765, "ELEMENT_SET_NO": 999, "REV_AT_EPOCH": 96731, "BSTAR": 9.1545831e-05, "MEAN_MOTION_DOT": 1e-06, "MEAN_MOTION_DDOT": 0}, "tle": {"line1": "1 29765U 99025BF  25345.32902237  .00000100  00000+0  91546-4 0  9990", "line2": "2 29765  98.8308   3.5588 0059861  96.4922 280.1910 14.02152869967312"}}, "geometry": {"type": "Point", "coordinates": [154.30195764230768, -72.6576361880961]}}, {"type": "Feature", "properties": {"norad_id": 29766, "name": "FENGYUN 1C DEB", "group": "fengyun-1c-debris", "lat": 58.844908182288385, "lon": -79.02511784245054, "alt_km": 965.0970323250303, "timestamp": "2025-12-11T22:43:47.539860+00:00", "meta": {"OBJECT_NAME": "FENGYUN 1C DEB", "OBJECT_ID": "1999-025BG", "EPOCH": "2025-12-11T14:42:58.598208", "MEAN_MOTION": 13.97043629, "ECCENTRICITY": 0.01461497, "INCLINATION": 98.6853, "RA_OF_ASC_NODE": 295.3049, "ARG_OF_PERICENTER": 291.4351, "MEAN_ANOMALY": 248.9048, "EPHEMERIS_TYPE": 0, "CLASSIFICATION_TYPE": "U", "NORAD_CAT_ID": 29766, "ELEMENT_SET_NO": 999, "REV_AT_EPOCH": 95788, "BSTAR": 0.0024294633, "MEAN_MOTION_DOT": 3.67e-05, "MEAN_MOTION_DDOT": 0}, "tle": {"line1": "1 29766U 99025BG  25345.61317822  .00003670  00000+0  24295-2 0  9993", "line2": "2 29766  98.6853 295.3049 0146149 291.4351 248.9048 13.97043629957889"}}, "geometry": {"type": "Point", "coordinates": [-79.02511784245054, 58.844908182288385]}}, {"type": "Feature", "properties": {"norad_id": 29767, "name": "FENGYUN 1C DEB", "group": "fengyun-1c-debris", "lat": -69.59382274400994, "lon": -22.479795688547043, "alt_km": 1055.6344762115323, "timestamp": "2025-12-11T22:43:47.539871+00:00", "meta": {"OBJECT_NAME": "FENGYUN 1C DEB", "OBJECT_ID": "1999-025BH", "EPOCH": "2025-12-11T11:40:22.948608", "MEAN_MOTION": 14.03322413, "ECCENTRICITY": 0.03332792, "INCLINATION": 98.1986, "RA_OF_ASC_NODE": 314.3032, "ARG_OF_PERICENTER": 64.811, "MEAN_ANOMALY": 60.6024, "EPHEMERIS_TYPE": 0, "CLASSIFICATION_TYPE": "U", "NORAD_CAT_ID": 29767, "ELEMENT_SET_NO": 999, "REV_AT_EPOCH": 95582, "BSTAR": 0.003605868, "MEAN_MOTION_DOT": 9.194e-05, "MEAN_MOTION_DDOT": 0}, "tle": {"line1": "1 29767U 99025BH  25345.48637672  .00009194  00000+0  36059-2 0  9995", "line2": "2 29767  98.1986 314.3032 0333279  64.8110  60.6024 14.03322413955827"}}, "geometry": {"type": "Point", "coordinates": [-22.479795688547043, -69.59382274400994]}}]}